BEIDOU-3S IGSO-1S       
1 40549U 15019A   26175.80819344 -.00000178  00000+0  00000+0 0  9991
2 40549  49.1794 295.3695 0038917 191.3782 167.8940  1.00249638 41144
NAVSTAR 74 (USA 262)    
1 40730U 15033A   26175.69997945 -.00000052  00000+0  00000+0 0  9991
2 40730  53.9765 266.7766 0115141  30.2383 330.4597  2.00556017 80143
BEIDOU-3S M2S           
1 40748U 15037A   26174.22980179 -.00000108  00000+0  00000+0 0  9995
2 40748  54.8652 301.8377 0008569 258.4474 101.4494  1.86231957 74237
BEIDOU-3S M1S           
1 40749U 15037B   26175.51021828 -.00000109  00000+0  00000+0 0  9997
2 40749  54.8605 301.7817 0003283  62.2648 297.7606  1.86254971 74264
GSAT0206 (GALILEO 10)   
1 40890U 15045B   26175.49628500  .00000051  00000+0  00000+0 0  9995
2 40890  54.9433 221.4024 0001685 336.0482  24.0274  1.70473861 67168
BEIDOU-3S IGSO-2S       
1 40938U 15053A   26176.68650015 -.00000126  00000+0  00000+0 0  9999
2 40938  49.2068 258.6794 0065506 192.9195 164.0515  1.00257859 39432
NAVSTAR 75 (USA 265)    
1 41019U 15062A   26176.75292303 -.00000085  00000+0  00000+0 0  9994
2 41019  56.9652  30.4811 0112145 231.0110 128.0368  2.00567225 78001
GSAT-15                 
1 41028U 15065A   26176.75732148 -.00000247  00000+0  00000+0 0  9993
2 41028   0.0505 264.0159 0004589 171.6067 204.4272  1.00271415 38887
GSAT0209 (GALILEO 12)   
1 41174U 15079A   26176.25098990 -.00000038  00000+0  00000+0 0  9993
2 41174  55.8320 101.0407 0005047 349.0522  10.9102  1.70473764 64918
GSAT0208 (GALILEO 11)   
1 41175U 15079B   26173.53836061 -.00000027  00000+0  00000+0 0  9999
2 41175  55.8290 101.1119 0004839 343.6998  16.2634  1.70473694 65283
IRNSS-1E                
1 41241U 16003A   26176.59836588 -.00000319  00000+0  00000+0 0  9998
2 41241  33.2517  59.6282 0019062 179.1130   2.2203  1.00274592 38164
NAVSTAR 76 (USA 266)    
1 41328U 16007A   26174.85002808 -.00000060  00000+0  00000+0 0  9998
2 41328  55.5277  89.1954 0095820 247.3210 111.6653  2.00551374 75978
COSMOS 2514 [GLONASS-M] 
1 41330U 16008A   26174.85480678 -.00000083  00000+0  00000+0 0  9992
2 41330  65.0172 312.7777 0011551 198.7083 161.2407  2.13102654 80763
BEIDOU-2 IGSO-6         
1 41434U 16021A   26175.09191728 -.00000155  00000+0  00000+0 0  9994
2 41434  60.2358  37.9691 0057538 231.1257 128.7042  1.00259092 37558
IRNSS-1G                
1 41469U 16027A   26176.35615294 -.00000329  00000+0  00000+0 0  9990
2 41469   5.2158  97.2878 0006269   2.9813  70.7125  1.00276580 37263
GSAT0211 (GALILEO 14)   
1 41549U 16030A   26174.83541472  .00000046  00000+0  00000+0 0  9995
2 41549  55.0937 221.5119 0003056 321.3377  38.7209  1.70474023 62785
GSAT0210 (GALILEO 13)   
1 41550U 16030B   26176.26585571  .00000056  00000+0  00000+0 0  9995
2 41550  55.0912 221.4705 0008659 257.5264 102.4641  1.70473937 62804
BEIDOU-2 G7             
1 41586U 16037A   26176.83209714 -.00000344  00000+0  00000+0 0  9997
2 41586   1.7419  69.4098 0006825   0.7604 253.9002  1.00272872  6974
EUTELSAT 117 WEST B     
1 41589U 16038B   26176.35910432 -.00000002  00000+0  00000+0 0  9995
2 41589   0.0126 150.0316 0000390  73.9936  61.7629  1.00271272 36746
GSAT0207 (GALILEO 15)   
1 41859U 16069A   26174.19787196 -.00000031  00000+0  00000+0 0  9990
2 41859  55.5021 100.9199 0005134 331.8808  28.0688  1.70473659 59503
GSAT0212 (GALILEO 16)   
1 41860U 16069B   26174.63790319 -.00000034  00000+0  00000+0 0  9995
2 41860  55.5001 100.9027 0004534   9.5312 350.4536  1.70473709 59763
GSAT0213 (GALILEO 17)   
1 41861U 16069C   26176.17825865 -.00000039  00000+0  00000+0 0  9997
2 41861  55.5032 100.8681 0004630 315.3374  44.5989  1.70474298 59651
GSAT0214 (GALILEO 18)   
1 41862U 16069D   26172.80498560 -.00000023  00000+0  00000+0 0  9995
2 41862  55.5000 100.9540 0003849 321.2487  38.7039  1.70473560 59724
SES-15                  
1 42709U 17026A   26175.50131078  .00000068  00000+0  00000+0 0  9996
2 42709   0.0193 335.4736 0000659  95.5096 252.9752  1.00268280  7503
QZS-2 (MICHIBIKI-2)     
1 42738U 17028A   26175.48562404 -.00000157  00000+0  00000+0 0  9998
2 42738  39.4163 243.0474 0759303 269.3393  77.0374  1.00282000  7691
QZS-3 (MICHIBIKI-3)     
1 42917U 17048A   26176.83530382 -.00000337  00000+0  00000+0 0  9999
2 42917   0.0657 150.0925 0002250 300.4876 251.1432  1.00272525 32346
COSMOS 2522 [GLONASS-M] 
1 42939U 17055A   26174.69248618  .00000100  00000+0  00000+0 0  9998
2 42939  64.1036 191.6583 0030269 259.5847 100.1235  2.13066943 68114
QZS-4 (MICHIBIKI-4)     
1 42965U 17062A   26176.33665515 -.00000360  00000+0  00000+0 0  9996
2 42965  40.1041 343.3808 0746739 268.2453 280.8214  1.00297191 31888
BEIDOU-3 M1             
1 43001U 17069A   26176.18738301 -.00000093  00000+0  00000+0 0  9995
2 43001  56.6993  62.8203 0010000 326.6653  33.3105  1.86231357 58757
BEIDOU-3 M2             
1 43002U 17069B   26173.97832444 -.00000093  00000+0  00000+0 0  9993
2 43002  56.6963  62.9294 0008992 352.6727   7.3499  1.86230523 58700
GSAT0215 (GALILEO 19)   
1 43055U 17079A   26176.22771248  .00000057  00000+0  00000+0 0  9996
2 43055  55.0718 221.2853 0003381 264.8914  95.1572  1.70474697 53122
